45133,ONEWEB-0020,2020,109.89,148.0,+,87.88,Active,1,LEO,Kazakhstan,UK,Commercial,Communications,Soyuz,1 45133U 20008C   23259.48641775 -.00000078  00000+0 -26028-3 0  9996,2 45133  87.8831 235.7736 0001861  77.1080 283.0255 13.10356810176765,13.1035681,0.0001861,LEO
45134,ONEWEB-0021,2020,109.89,148.0,+,87.88,Active,1,LEO,Kazakhstan,UK,Commercial,Communications,Soyuz,1 45134U 20008D   23259.50105064 -.00000110  00000+0 -35254-3 0  9994,2 45134  87.8836 235.7734 0002098  85.3627 274.7740 13.10375691177079,13.10375691,0.0002098,LEO
45136,ONEWEB-0023,2020,109.89,148.0,+,87.88,Active,1,LEO,Kazakhstan,UK,Commercial,Communications,Soyuz,1 45136U 20008F   23259.97216220 -.00000485  00000+0 -14249-2 0  9999,2 45136  87.8840 235.6737 0001440  92.1850 267.9442 13.10375510177312,13.1037551,0.000144,LEO
45137,ONEWEB-0024,2020,109.89,148.0,+,87.87,Active,1,LEO,Kazakhstan,UK,Commercial,Communications,Soyuz,1 45137U 20008G   23259.48480714  .00000665  00000+0  18699-2 0  9998,2 45137  87.8738 235.8086 0002102  84.3691 275.7676 13.10376037176668,13.10376037,0.0002102,LEO
45138,ONEWEB-0025,2020,109.89,148.0,+,87.88,Active,1,LEO,Kazakhstan,UK,Commercial,Communications,Soyuz,1 45138U 20008H   23259.50267158 -.00000145  00000+0 -45179-3 0  9996,2 45138  87.8838 235.7755 0002119 100.1860 259.9507 13.10375526176990,13.10375526,0.0002119,LEO
45139,ONEWEB-0026,2020,109.83,148.0,+,87.89,Active,1,LEO,Kazakhstan,UK,Commercial,Communications,Soyuz,1 45139U 20008J   23259.93943833 -.00114712  00000+0 -32906+0 0  9991,2 45139  87.8966 220.5312 0002079  75.1447 284.9911 13.11138573180375,13.11138573,0.0002079,LEO
45140,ONEWEB-0028,2020,109.82,148.0,+,87.89,Active,1,LEO,Kazakhstan,UK,Commercial,Communications,Soyuz,1 45140U 20008K   23259.43810834  .00000235  00000+0  62843-3 0  9991,2 45140  87.8938 220.6823 0002243  96.2850 263.8534 13.11258597176932,13.11258597,0.0002243,LEO
